NORAD_CAT_ID,OBJECT_NAME,OBJECT_TYPE,EPOCH,MEAN_MOTION,ECCENTRICITY,INCLINATION,RA_OF_ASC_NODE,ARG_OF_PERICENTER,MEAN_ANOMALY,BSTAR,MEAN_MOTION_DOT,MEAN_MOTION_DDOT,TLE_LINE0,TLE_LINE1,TLE_LINE2,SEMIMAJOR_AXIS,PERIOD,APOGEE,PERIGEE,DECAYED
53528.0,STARLINK-4503,PAYLOAD,2023-10-28 09:45:17,15.08829703,0.0001515,53.2172,349.551,81.9735,278.1429,-0.00014345,-2.57e-05,0.0,0 STARLINK-4503,1 53528U 22101B   23301.40645416 -.00002570  00000-0 -14345-3 0  9994,2 53528  53.2172 349.5510 0001515  81.9735 278.1429 15.08829703 65835,6917.912,95.438,540.825,538.729,0.0
53528.0,STARLINK-4503,PAYLOAD,2023-10-28 20:52:59,15.0884247,0.0001636,53.2171,347.4696,80.1702,279.9475,0.00018166,2.604e-05,0.0,0 STARLINK-4503,1 53528U 22101B   23301.87013195  .00002604  00000-0  18166-3 0  9999,2 53528  53.2171 347.4696 0001636  80.1702 279.9475 15.08842470 65909,6917.873,95.437,540.87,538.606,0.0
53528.0,STARLINK-4503,PAYLOAD,2023-10-29 09:36:04,15.08860474,0.0001707,53.217,345.0899,81.8832,278.2353,0.0007003,0.00010881,0.0,0 STARLINK-4503,1 53528U 22101B   23302.40004716  .00010881  00000-0  70030-3 0  9992,2 53528  53.2170 345.0899 0001707  81.8832 278.2353 15.08860474 65987,6917.818,95.436,540.864,538.502,0.0
53528.0,STARLINK-4503,PAYLOAD,2023-10-29 23:54:32,15.08850088,0.0001563,53.2169,342.4144,68.7186,291.3973,0.00039771,6.049e-05,0.0,0 STARLINK-4503,1 53528U 22101B   23302.99621042  .00006049  00000-0  39771-3 0  9991,2 53528  53.2169 342.4144 0001563  68.7186 291.3973 15.08850088 66070,6917.85,95.437,540.796,538.633,0.0
53528.0,STARLINK-4503,PAYLOAD,2023-10-30 09:26:51,15.08840708,0.0001664,53.217,340.6296,86.2555,273.8627,0.00021035,3.061e-05,0.0,0 STARLINK-4503,1 53528U 22101B   23303.39365070  .00003061  00000-0  21035-3 0  9997,2 53528  53.2170 340.6296 0001664  86.2555 273.8627 15.08840708 66133,6917.878,95.438,540.894,538.592,0.0
53528.0,STARLINK-4503,PAYLOAD,2023-10-31 02:56:06,15.08832903,0.000166,53.2168,337.3585,89.7452,270.373,0.00022349,3.27e-05,0.0,0 STARLINK-4503,1 53528U 22101B   23304.12229893  .00003270  00000-0  22349-3 0  9992,2 53528  53.2168 337.3585 0001660  89.7452 270.3730 15.08832903 66241,6917.902,95.438,540.915,538.619,0.0
53528.0,STARLINK-4503,PAYLOAD,2023-10-31 09:17:39,15.08839211,0.0001755,53.2177,336.1701,88.9876,271.1318,0.00020787,3.022e-05,0.0,0 STARLINK-4503,1 53528U 22101B   23304.38725813  .00003022  00000-0  20787-3 0  9992,2 53528  53.2177 336.1701 0001755  88.9876 271.1318 15.08839211 66288,6917.883,95.438,540.962,538.534,0.0
53528.0,STARLINK-4503,PAYLOAD,2023-10-31 18:49:58,15.08839552,0.0001749,53.2175,334.3855,89.1029,271.0164,0.00025951,3.844e-05,0.0,0 STARLINK-4503,1 53528U 22101B   23304.78470039  .00003844  00000-0  25951-3 0  9993,2 53528  53.2175 334.3855 0001749  89.1029 271.0164 15.08839552 66345,6917.882,95.438,540.957,538.537,0.0
53528.0,STARLINK-4503,PAYLOAD,2023-11-01 09:08:26,15.08840318,0.0001784,53.2173,331.7108,103.4487,256.6704,0.00026818,3.983e-05,0.0,0 STARLINK-4503,1 53528U 22101B   23305.38086139  .00003983  00000-0  26818-3 0  9991,2 53528  53.2173 331.7108 0001784 103.4487 256.6704 15.08840318 66433,6917.879,95.438,540.979,538.51,0.0
53528.0,STARLINK-4503,PAYLOAD,2023-11-01 18:40:45,15.08843339,0.0001653,53.2178,329.9267,97.2808,262.8372,0.00023034,3.38e-05,0.0,0 STARLINK-4503,1 53528U 22101B   23305.77829981  .00003380  00000-0  23034-3 0  9992,2 53528  53.2178 329.9267 0001653  97.2808 262.8372 15.08843339 66497,6917.87,95.437,540.879,538.592,0.0
53528.0,STARLINK-4503,PAYLOAD,2023-11-02 10:34:36,15.08847099,0.000176,53.2174,326.9504,95.2255,264.8938,0.00020681,3.005e-05,0.0,0 STARLINK-4503,1 53528U 22101B   23306.44069816  .00003005  00000-0  20681-3 0  9999,2 53528  53.2174 326.9504 0001760  95.2255 264.8938 15.08847099 66595,6917.859,95.437,540.941,538.506,0.0
53528.0,STARLINK-4503,PAYLOAD,2023-11-03 00:53:04,15.08839029,0.0001544,53.2176,324.2762,92.0133,268.1036,7.1419e-05,8.49e-06,0.0,0 STARLINK-4503,1 53528U 22101B   23307.03686163  .00000849  00000-0  71419-4 0  9994,2 53528  53.2176 324.2762 0001544  92.0133 268.1036 15.08839029 66684,6917.883,95.438,540.816,538.68,0.0
53528.0,STARLINK-4503,PAYLOAD,2023-11-03 08:50:00,15.08846472,0.0001631,53.2169,322.7887,94.97,265.1478,0.00018893,2.721e-05,0.0,0 STARLINK-4503,1 53528U 22101B   23307.36805843  .00002721  00000-0  18893-3 0  9995,2 53528  53.2169 322.7887 0001631  94.9700 265.1478 15.08846472 66738,6917.861,95.437,540.854,538.597,0.0
53528.0,STARLINK-4503,PAYLOAD,2023-11-03 18:22:19,15.08844827,0.0001636,53.2166,321.0036,88.9631,271.1548,0.0001636,2.317e-05,0.0,0 STARLINK-4503,1 53528U 22101B   23307.76549973  .00002317  00000-0  16360-3 0  9996,2 53528  53.2166 321.0036 0001636  88.9631 271.1548 15.08844827 66797,6917.866,95.437,540.862,538.599,0.0
53528.0,STARLINK-4503,PAYLOAD,2023-11-04 07:05:24,15.08842235,0.0001694,53.2181,318.6239,99.4268,260.6916,0.00016365,2.318e-05,0.0,0 STARLINK-4503,1 53528U 22101B   23308.29542223  .00002318  00000-0  16365-3 0  9992,2 53528  53.2181 318.6239 0001694  99.4268 260.6916 15.08842235 66870,6917.874,95.437,540.91,538.567,0.0
53528.0,STARLINK-4503,PAYLOAD,2023-11-04 18:13:06,15.08839791,0.0001481,53.2167,316.5433,90.5736,269.5426,0.0001216,1.648e-05,0.0,0 STARLINK-4503,1 53528U 22101B   23308.75910389  .00001648  00000-0  12160-3 0  9999,2 53528  53.2167 316.5433 0001481  90.5736 269.5426 15.08839791 66948,6917.881,95.438,540.771,538.721,0.0
53528.0,STARLINK-4503,PAYLOAD,2023-11-05 10:06:57,15.08856046,0.0001863,53.2161,313.5682,92.7428,267.3778,0.00056609,8.737e-05,0.0,0 STARLINK-4503,1 53528U 22101B   23309.42150204  .00008737  00000-0  56609-3 0  9998,2 53528  53.2161 313.5682 0001863  92.7428 267.3778 15.08856046 67041,6917.831,95.437,540.985,538.408,0.0
53528.0,STARLINK-4503,PAYLOAD,2023-11-05 18:03:53,15.0884694,0.0001915,53.2171,312.0791,96.2425,263.8786,0.00031131,4.671e-05,0.0,0 STARLINK-4503,1 53528U 22101B   23309.75270312  .00004671  00000-0  31131-3 0  9993,2 53528  53.2171 312.0791 0001915  96.2425 263.8786 15.08846940 67098,6917.859,95.437,541.049,538.399,0.0
53528.0,STARLINK-4503,PAYLOAD,2023-11-06 09:57:43,15.08877775,0.0001975,53.2178,309.1052,98.3279,261.7938,0.00084522,0.00013203,0.0,0 STARLINK-4503,1 53528U 22101B   23310.41508844  .00013203  00000-0  84522-3 0  9995,2 53528  53.2178 309.1052 0001975  98.3279 261.7938 15.08877775 67195,6917.765,95.435,540.996,538.264,0.0
53528.0,STARLINK-4503,PAYLOAD,2023-11-07 03:27:00,15.08809366,0.0001929,53.218,305.8353,131.1413,228.9746,-0.00063772,-0.00010415,0.0,0 STARLINK-4503,1 53528U 22101B   23311.14375074 -.00010415  00000-0 -63772-3 0  9991,2 53528  53.2180 305.8353 0001929 131.1413 228.9746 15.08809366 67306,6917.974,95.439,541.174,538.505,0.0
53528.0,STARLINK-4503,PAYLOAD,2023-11-07 05:02:23,15.0880027,0.0001885,53.2176,305.5366,132.433,227.6822,-0.00072887,-0.00011857,0.0,0 STARLINK-4503,1 53528U 22101B   23311.20999250 -.00011857  00000-0 -72887-3 0  9994,2 53528  53.2176 305.5366 0001885 132.4330 227.6822 15.08800270 67312,6918.002,95.44,541.171,538.563,0.0
53528.0,STARLINK-4503,PAYLOAD,2023-11-07 16:10:07,15.08757559,0.0002041,53.2183,303.4593,118.3573,241.7625,-0.0016321,-0.00026111,0.0,0 STARLINK-4503,1 53528U 22101B   23311.67369563 -.00026111  00000-0 -16321-2 0  9992,2 53528  53.2183 303.4593 0002041 118.3573 241.7625 15.08757559 67382,6918.132,95.443,541.409,538.585,0.0
53528.0,STARLINK-4503,PAYLOAD,2023-11-08 03:17:48,15.08842521,0.0001583,53.218,301.3758,116.5502,243.5653,0.0011376,0.00017864,0.0,0 STARLINK-4503,1 53528U 22101B   23312.13736216  .00017864  00000-0  11376-2 0  9995,2 53528  53.2180 301.3758 0001583 116.5502 243.5653 15.08842521 67454,6917.873,95.437,540.833,538.643,0.0
53528.0,STARLINK-4503,PAYLOAD,2023-11-08 09:39:20,15.08849316,0.0001445,53.2178,300.1888,113.7315,246.3829,0.0015493,0.00024461,0.0,0 STARLINK-4503,1 53528U 22101B   23312.40231867  .00024461  00000-0  15493-2 0  9992,2 53528  53.2178 300.1888 0001445 113.7315 246.3829 15.08849316 67499,6917.852,95.437,540.717,538.717,0.0
53528.0,STARLINK-4503,PAYLOAD,2023-11-08 16:00:53,15.08838155,0.0002097,53.2182,299.0018,123.479,236.6402,0.00092055,0.00014392,0.0,0 STARLINK-4503,1 53528U 22101B   23312.66728145  .00014392  00000-0  92055-3 0  9992,2 53528  53.2182 299.0018 0002097 123.4790 236.6402 15.08838155 67537,6917.886,95.438,541.202,538.3,0.0
53528.0,STARLINK-4503,PAYLOAD,2023-11-09 09:30:06,15.08863447,0.0001406,53.2174,295.7285,127.4138,232.6983,0.00050319,7.734e-05,0.0,0 STARLINK-4503,1 53528U 22101B   23313.39590596  .00007734  00000-0  50319-3 0  9999,2 53528  53.2174 295.7285 0001406 127.4138 232.6983 15.08863447 67644,6917.809,95.436,540.646,538.701,0.0
53528.0,STARLINK-4503,PAYLOAD,2023-11-10 07:45:30,15.08854518,0.0001331,53.2172,291.5643,109.9136,250.1999,0.00033467,5.044e-05,0.0,0 STARLINK-4503,1 53528U 22101B   23314.32326411  .00005044  00000-0  33467-3 0  9993,2 53528  53.2172 291.5643 0001331 109.9136 250.1999 15.08854518 67780,6917.836,95.437,540.622,538.78,0.0
53528.0,STARLINK-4503,PAYLOAD,2023-11-10 15:42:26,15.08846927,0.0001894,53.2173,290.0785,82.5628,277.5579,0.00022305,3.264e-05,0.0,0 STARLINK-4503,1 53528U 22101B   23314.65446801  .00003264  00000-0  22305-3 0  9996,2 53528  53.2173 290.0785 0001894  82.5628 277.5579 15.08846927 67836,6917.859,95.437,541.034,538.414,0.0
53528.0,STARLINK-4503,PAYLOAD,2023-11-11 02:50:08,15.08832025,0.0001299,53.2168,287.9967,91.9708,268.1433,0.00051383,7.897e-05,0.0,0 STARLINK-4503,1 53528U 22101B   23315.11814931  .00007897  00000-0  51383-3 0  9995,2 53528  53.2168 287.9967 0001299  91.9708 268.1433 15.08832025 67906,6917.905,95.438,540.668,538.871,0.0
53528.0,STARLINK-4503,PAYLOAD,2023-11-11 06:00:54,15.08839814,0.0001402,53.2165,287.4013,85.849,274.2663,0.00094582,0.00014797,0.0,0 STARLINK-4503,1 53528U 22101B   23315.25062994  .00014797  00000-0  94582-3 0  9999,2 53528  53.2165 287.4013 0001402  85.8490 274.2663 15.08839814 67924,6917.881,95.438,540.716,538.776,0.0
